start=new Date('2021-09-27T00:00:00.000Z').valueOf();
sats=[{"ECCENTRICITY":"0.00008540","TIME_SYSTEM":"UTC","OBJECT_NAME":"STARLINK-1831","DECAY_DATE":null,"SEMIMAJOR_AXIS":"6925.366","OBJECT_TYPE":"PAYLOAD","PERIAPSIS":"546.640","REV_AT_EPOCH":"5230","GP_ID":"185551212","APOAPSIS":"547.823","RA_OF_ASC_NODE":"327.6083","SITE":"AFETR","FILE":"3129258","TLE_LINE1":"1 46728U 20073BL  21269.44668546  .00000062  00000-0  23064-4 0  9999","ELEMENT_SET_NO":"999","MEAN_MOTION_DOT":"0.00000062","TLE_LINE2":"2 46728  53.0558 327.6083 0000854 102.5436 257.5648 15.06394283 52300","EPHEMERIS_TYPE":"0","CLASSIFICATION_TYPE":"U","PERIOD":"95.593","EPOCH":"2021-09-26T10:43:13.623744","NORAD_CAT_ID":"46728","INCLINATION":"53.0558","BSTAR":"0.00002306400000","OBJECT_ID":"2020-073BL","MEAN_ANOMALY":"257.5648","COUNTRY_CODE":"US","CENTER_NAME":"EARTH","RCS_SIZE":"LARGE","MEAN_MOTION_DDOT":"0.0000000000000","MEAN_MOTION":"15.06394283","MEAN_ELEMENT_THEORY":"SGP4","LAUNCH_DATE":"2020-10-18","REF_FRAME":"TEME","ARG_OF_PERICENTER":"102.5436"},{"CENTER_NAME":"EARTH","RCS_SIZE":"LARGE","COUNTRY_CODE":"US","MEAN_ANOMALY":"257.3950","BSTAR":"0.00004361800000","OBJECT_ID":"2020-074B","INCLINATION":"53.0575","NORAD_CAT_ID":"46740","EPOCH":"2021-09-26T16:23:35.595168","PERIOD":"95.592","EPHEMERIS_TYPE":"0","TLE_LINE2":"2 46740  53.0575  61.5554 0001528 102.7210 257.3950 15.06399086 51670","CLASSIFICATION_TYPE":"U","MEAN_MOTION_DOT":"0.00000368","ELEMENT_SET_NO":"999","TLE_LINE1":"1 46740U 20074B   21269.68305087  .00000368  00000-0  43618-4 0  9994","SITE":"AFETR","FILE":"3129566","RA_OF_ASC_NODE":"61.5554","APOAPSIS":"548.275","GP_ID":"185581112","REV_AT_EPOCH":"5167","PERIAPSIS":"546.158","SEMIMAJOR_AXIS":"6925.351","OBJECT_TYPE":"PAYLOAD","DECAY_DATE":null,"TIME_SYSTEM":"UTC","OBJECT_NAME":"STARLINK-1848","ECCENTRICITY":"0.00015280","ARG_OF_PERICENTER":"102.7210","REF_FRAME":"TEME","LAUNCH_DATE":"2020-10-24","MEAN_ELEMENT_THEORY":"SGP4","MEAN_MOTION":"15.06399086","MEAN_MOTION_DDOT":"0.0000000000000"},{"ELEMENT_SET_NO":"999","MEAN_MOTION_DOT":"0.00000211","TLE_LINE1":"1 46741U 20074C   21269.70009096  .00000211  00000-0  33080-4 0  9998","EPOCH":"2021-09-26T16:48:07.858944","NORAD_CAT_ID":"46741","TLE_LINE2":"2 46741  53.0550  56.4859 0001855  95.4555 264.6646 15.06406499 51757","EPHEMERIS_TYPE":"0","CLASSIFICATION_TYPE":"U","PERIOD":"95.592","INCLINATION":"53.0550","MEAN_ANOMALY":"264.6646","COUNTRY_CODE":"US","CENTER_NAME":"EARTH","RCS_SIZE":"LARGE","OBJECT_ID":"2020-074C","BSTAR":"0.00003308000000","TIME_SYSTEM":"UTC","OBJECT_NAME":"STARLINK-1865","ECCENTRICITY":"0.00018550","PERIAPSIS":"545.909","DECAY_DATE":null,"SEMIMAJOR_AXIS":"6925.329","OBJECT_TYPE":"PAYLOAD","REV_AT_EPOCH":"5175","GP_ID":"185581362","SITE":"AFETR","FILE":"3129566","APOAPSIS":"548.478","RA_OF_ASC_NODE":"56.4859","ARG_OF_PERICENTER":"95.4555","MEAN_MOTION_DDOT":"0.0000000000000","MEAN_ELEMENT_THEORY":"SGP4","MEAN_MOTION":"15.06406499","REF_FRAME":"TEME","LAUNCH_DATE":"2020-10-24"},{"ARG_OF_PERICENTER":"105.6111","REF_FRAME":"TEME","LAUNCH_DATE":"2020-10-24","MEAN_MOTION":"15.06378201","MEAN_ELEMENT_THEORY":"SGP4","MEAN_MOTION_DDOT":"0.0000000000000","CENTER_NAME":"EARTH","RCS_SIZE":"LARGE","MEAN_ANOMALY":"254.5034","COUNTRY_CODE":"US","OBJECT_ID":"2020-074D","BSTAR":"0.00014772000000","INCLINATION":"53.0557","NORAD_CAT_ID":"46742","EPOCH":"2021-09-26T16:05:40.457760","PERIOD":"95.594","EPHEMERIS_TYPE":"0","TLE_LINE2":"2 46742  53.0557  56.6006 0001414 105.6111 254.5034 15.06378201 51741","CLASSIFICATION_TYPE":"U","MEAN_MOTION_DOT":"0.00001918","ELEMENT_SET_NO":"999","TLE_LINE1":"1 46742U 20074D   21269.67060715  .00001918  00000-0  14772-3 0  9991","SITE":"AFETR","FILE":"3129566","RA_OF_ASC_NODE":"56.6006","APOAPSIS":"548.260","GP_ID":"185582613","REV_AT_EPOCH":"5174","PERIAPSIS":"546.301","OBJECT_TYPE":"PAYLOAD","SEMIMAJOR_AXIS":"6925.415","DECAY_DATE":null,"OBJECT_NAME":"STARLINK-1872","TIME_SYSTEM":"UTC","ECCENTRICITY":"0.00014140"},{"ARG_OF_PERICENTER":"317.7779","MEAN_MOTION_DDOT":"0.0000000000000","MEAN_ELEMENT_THEORY":"SGP4","MEAN_MOTION":"15.06379086","REF_FRAME":"TEME","LAUNCH_DATE":"2020-10-24","MEAN_MOTION_DOT":"-0.00002025","ELEMENT_SET_NO":"999","TLE_LINE1":"1 46743U 20074E   21269.69273719 -.00002025  00000-0 -11710-3 0  9995","NORAD_CAT_ID":"46743","EPOCH":"2021-09-26T16:37:32.493216","PERIOD":"95.593","CLASSIFICATION_TYPE":"U","TLE_LINE2":"2 46743  53.0546  56.5154 0003653 317.7779  42.2928 15.06379086 51753","EPHEMERIS_TYPE":"0","INCLINATION":"53.0546","RCS_SIZE":"LARGE","CENTER_NAME":"EARTH","MEAN_ANOMALY":"42.2928","COUNTRY_CODE":"US","OBJECT_ID":"2020-074E","BSTAR":"-0.00011710000000","OBJECT_NAME":"STARLINK-1892","TIME_SYSTEM":"UTC","ECCENTRICITY":"0.00036530","PERIAPSIS":"544.748","OBJECT_TYPE":"PAYLOAD","SEMIMAJOR_AXIS":"6925.413","DECAY_DATE":null,"GP_ID":"185582364","REV_AT_EPOCH":"5175","FILE":"3129566","SITE":"AFETR","RA_OF_ASC_NODE":"56.5154","APOAPSIS":"549.808"},{"CENTER_NAME":"EARTH","RCS_SIZE":"LARGE","COUNTRY_CODE":"US","MEAN_ANOMALY":"257.0732","OBJECT_ID":"2020-074F","BSTAR":"0.00008041000000","INCLINATION":"53.0542","NORAD_CAT_ID":"46744","EPOCH":"2021-09-26T15:28:30.644832","PERIOD":"95.592","TLE_LINE2":"2 46744  53.0542  56.7304 0001481 103.0423 257.0732 15.06409437 51740","CLASSIFICATION_TYPE":"U","EPHEMERIS_TYPE":"0","MEAN_MOTION_DOT":"0.00000917","ELEMENT_SET_NO":"999","TLE_LINE1":"1 46744U 20074F   21269.64479913  .00000917  00000-0  80410-4 0  9995","SITE":"AFETR","FILE":"3129566","RA_OF_ASC_NODE":"56.7304","APOAPSIS":"548.210","GP_ID":"185581612","REV_AT_EPOCH":"5174","PERIAPSIS":"546.159","SEMIMAJOR_AXIS":"6925.320","OBJECT_TYPE":"PAYLOAD","DECAY_DATE":null,"OBJECT_NAME":"STARLINK-1894","TIME_SYSTEM":"UTC","ECCENTRICITY":"0.00014810","ARG_OF_PERICENTER":"103.0423","REF_FRAME":"TEME","LAUNCH_DATE":"2020-10-24","MEAN_ELEMENT_THEORY":"SGP4","MEAN_MOTION":"15.06409437","MEAN_MOTION_DDOT":"0.0000000000000"},{"ARG_OF_PERICENTER":"100.3661","REF_FRAME":"TEME","LAUNCH_DATE":"2020-10-24","MEAN_MOTION":"15.06385699","MEAN_ELEMENT_THEORY":"SGP4","MEAN_MOTION_DDOT":"0.0000000000000","MEAN_ANOMALY":"259.7506","COUNTRY_CODE":"US","RCS_SIZE":"LARGE","CENTER_NAME":"EARTH","BSTAR":"-0.00003478400000","OBJECT_ID":"2020-074G","INCLINATION":"53.0559","EPOCH":"2021-09-26T16:00:24.545664","NORAD_CAT_ID":"46745","EPHEMERIS_TYPE":"0","TLE_LINE2":"2 46745  53.0559  56.6164 0001578 100.3661 259.7506 15.06385699 51744","CLASSIFICATION_TYPE":"U","PERIOD":"95.593","ELEMENT_SET_NO":"999","MEAN_MOTION_DOT":"-0.00000799","TLE_LINE1":"1 46745U 20074G   21269.66695076 -.00000799  00000-0 -34784-4 0  9991","FILE":"3129566","SITE":"AFETR","APOAPSIS":"548.350","RA_OF_ASC_NODE":"56.6164","REV_AT_EPOCH":"5174","GP_ID":"185581862","PERIAPSIS":"546.165","DECAY_DATE":null,"OBJECT_TYPE":"PAYLOAD","SEMIMAJOR_AXIS":"6925.392","TIME_SYSTEM":"UTC","OBJECT_NAME":"STARLINK-1898","ECCENTRICITY":"0.00015780"},{"INCLINATION":"53.0559","COUNTRY_CODE":"US","MEAN_ANOMALY":"265.8859","CENTER_NAME":"EARTH","RCS_SIZE":"LARGE","BSTAR":"-0.00000600510000","OBJECT_ID":"2020-074H","ELEMENT_SET_NO":"999","MEAN_MOTION_DOT":"-0.00000371","TLE_LINE1":"1 46746U 20074H   21269.65955344 -.00000371  00000-0 -60051-5 0  9991","EPOCH":"2021-09-26T15:49:45.417216","NORAD_CAT_ID":"46746","CLASSIFICATION_TYPE":"U","TLE_LINE2":"2 46746  53.0559  56.6526 0001852  94.2342 265.8859 15.06395617 51749","EPHEMERIS_TYPE":"0","PERIOD":"95.592","REV_AT_EPOCH":"5174","GP_ID":"185582114","SITE":"AFETR","FILE":"3129566","APOAPSIS":"548.510","RA_OF_ASC_NODE":"56.6526","TIME_SYSTEM":"UTC","OBJECT_NAME":"STARLINK-1905","ECCENTRICITY":"0.00018520","PERIAPSIS":"545.944","DECAY_DATE":null,"SEMIMAJOR_AXIS":"6925.362","OBJECT_TYPE":"PAYLOAD","ARG_OF_PERICENTER":"94.2342","REF_FRAME":"TEME","LAUNCH_DATE":"2020-10-24","MEAN_MOTION_DDOT":"0.0000000000000","MEAN_ELEMENT_THEORY":"SGP4","MEAN_MOTION":"15.06395617"},{"CENTER_NAME":"EARTH","RCS_SIZE":"LARGE","COUNTRY_CODE":"US","MEAN_ANOMALY":"260.9240","OBJECT_ID":"2020-074J","BSTAR":"0.00001938500000","INCLINATION":"53.0547","NORAD_CAT_ID":"46747","EPOCH":"2021-09-26T16:58:45.154848","PERIOD":"95.592","EPHEMERIS_TYPE":"0","TLE_LINE2":"2 46747  53.0547  56.4409 0001645  99.1935 260.9240 15.06394547 51759","CLASSIFICATION_TYPE":"U","MEAN_MOTION_DOT":"0.00000007","ELEMENT_SET_NO":"999","TLE_LINE1":"1 46747U 20074J   21269.70746707  .00000007  00000-0  19385-4 0  9996","FILE":"3129566","SITE":"AFETR","RA_OF_ASC_NODE":"56.4409","APOAPSIS":"548.369","GP_ID":"185582864","REV_AT_EPOCH":"5175","PERIAPSIS":"546.091","SEMIMAJOR_AXIS":"6925.365","OBJECT_TYPE":"PAYLOAD","DECAY_DATE":null,"TIME_SYSTEM":"UTC","OBJECT_NAME":"STARLINK-1908","ECCENTRICITY":"0.00016450","ARG_OF_PERICENTER":"99.1935","REF_FRAME":"TEME","LAUNCH_DATE":"2020-10-24","MEAN_ELEMENT_THEORY":"SGP4","MEAN_MOTION":"15.06394547","MEAN_MOTION_DDOT":"0.0000000000000"},{"MEAN_MOTION_DDOT":"0.0000000000000","MEAN_MOTION":"15.06384407","MEAN_ELEMENT_THEORY":"SGP4","LAUNCH_DATE":"2020-10-24","REF_FRAME":"TEME","ARG_OF_PERICENTER":"185.4760","ECCENTRICITY":"0.00003550","OBJECT_NAME":"STARLINK-1910","TIME_SYSTEM":"UTC","SEMIMAJOR_AXIS":"6925.396","OBJECT_TYPE":"PAYLOAD","DECAY_DATE":null,"PERIAPSIS":"547.015","GP_ID":"185581113","REV_AT_EPOCH":"5175","RA_OF_ASC_NODE":"56.4156","APOAPSIS":"547.507","SITE":"AFETR","FILE":"3129566","TLE_LINE1":"1 46748U 20074K   21269.71484858 -.00000576  00000-0 -19839-4 0  9991","MEAN_MOTION_DOT":"-0.00000576","ELEMENT_SET_NO":"999","PERIOD":"95.593","TLE_LINE2":"2 46748  53.0554  56.4156 0000355 185.4760 174.6225 15.06384407 51757","EPHEMERIS_TYPE":"0","CLASSIFICATION_TYPE":"U","NORAD_CAT_ID":"46748","EPOCH":"2021-09-26T17:09:22.917312","INCLINATION":"53.0554","OBJECT_ID":"2020-074K","BSTAR":"-0.00001983900000","RCS_SIZE":"LARGE","CENTER_NAME":"EARTH","MEAN_ANOMALY":"174.6225","COUNTRY_CODE":"US"}];
